STARLINK-1559           
1 46077U 20055BC  26068.23360559  .00042685  00000+0  14779-2 0  9995
2 46077  53.0254  76.0659 0004229  33.9710 326.1559 15.29461733309518
STARLINK-30315          
1 57708U 23129L   26068.56156565  .00098995  00000+0  35796-2 0  9996
2 57708  43.0003 118.5703 0001410 274.4089  85.6601 15.27390045140663
