[{"OBJECT_NAME":"STARLINK-1559","OBJECT_ID":"2020-055BC","EPOCH":"2026-03-09T05:36:23.522976","MEAN_MOTION":15.29461733,"ECCENTRICITY":0.0004229,"INCLINATION":53.0254,"RA_OF_ASC_NODE":76.0659,"ARG_OF_PERICENTER":33.971,"MEAN_ANOMALY":326.1559,"EPHEMERIS_TYPE":0,"CLASSIFICATION_TYPE":"U","NORAD_CAT_ID":46077,"ELEMENT_SET_NO":999,"REV_AT_EPOCH":30951,"BSTAR":0.0014778793,"MEAN_MOTION_DOT":0.00042685,"MEAN_MOTION_DDOT":0},{"OBJECT_NAME":"STARLINK-30315","OBJECT_ID":"2023-129L","EPOCH":"2026-03-09T13:28:39.272160","MEAN_MOTION":15.27390045,"ECCENTRICITY":0.000141,"INCLINATION":43.0003,"RA_OF_ASC_NODE":118.5703,"ARG_OF_PERICENTER":274.4089,"MEAN_ANOMALY":85.6601,"EPHEMERIS_TYPE":0,"CLASSIFICATION_TYPE":"U","NORAD_CAT_ID":57708,"ELEMENT_SET_NO":999,"REV_AT_EPOCH":14066,"BSTAR":0.0035796,"MEAN_MOTION_DOT":0.00098995,"MEAN_MOTION_DDOT":0}]
